COSMOS 2242             
1 22626U 93024A   26092.17063093  .00003538  00000+0  30736-3 0  9994
2 22626  82.5170 244.2503 0015348 222.7954 137.2074 14.96656591783908
SL-16 R/B               
1 22803U 93059B   26092.12158919 -.00000042  00000+0  28597-5 0  9998
2 22803  70.9909 321.7162 0017181 182.0868 178.0187 14.17234539682854
ARIANE 40 R/B           
1 22830U 93061H   26092.16153701  .00000306  00000+0  12778-3 0  9993
2 22830  98.4873 160.5811 0010239 208.9210 151.1407 14.32873932697468
COSMOS 2278             
1 23087U 94023A   26092.29013536 -.00000057  00000+0 -49514-5 0  9997
2 23087  71.0507 125.7235 0009292 337.9903  22.0819 14.14374769648144
SL-16 R/B               
1 23088U 94023B   26092.25529451  .00000252  00000+0  15490-3 0  9991
2 23088  71.0029  21.3957 0005542 264.6723  95.3767 14.15018536649421
SL-16 R/B               
1 23343U 94074B   26092.32110478  .00000709  00000+0  10156-3 0  9995
2 23343  97.7073 122.1783 0007583 135.5614 235.4836 14.79435987690746
SL-16 R/B               
1 23405U 94077B   26092.01570474 -.00000182  00000+0 -68668-4 0  9998
2 23405  70.9826 303.4171 0001707 193.2014 166.9065 14.15568586619538
ARIANE 40+ R/B          
1 23561U 95021B   26092.23468970  .00000423  00000+0  14867-3 0  9999
2 23561  98.4456 163.3935 0007859  75.8671 334.8625 14.39789935622636
SL-16 R/B               
1 23705U 95058B   26092.30650429 -.00000123  00000+0 -38572-4 0  9998
2 23705  71.0194 130.6747 0010237  82.3748 277.8537 14.15497974571197
SL-16 R/B               
1 24298U 96051B   26092.32448390  .00000153  00000+0  10942-3 0  9995
2 24298  70.7582 125.2147 0013216 109.4001 250.8548 14.12422819524980
ORBVIEW 2 (SEASTAR)     
1 24883U 97037A   26092.32555472  .00000408  00000+0  15802-3 0  9993
2 24883  98.8607 257.2688 0002172  18.6564 341.4700 14.35512172511866
SL-16 R/B               
1 25400U 98043G   26092.09594369  .00000079  00000+0  52249-4 0  9990
2 25400  98.8295  45.6310 0009030 311.1745  48.8655 14.26055311442326
